ONEWEB-0371             
1 49297U 21090U   25339.02305425  .00000059  00000+0  11456-3 0  9999
2 49297  87.9199 343.5999 0001799  86.4975 273.6364 13.19724128200846
ONEWEB-0372             
1 49298U 21090V   25339.29969602 -.00000296  00000+0 -75932-3 0  9996
2 49298  87.9189 313.1082 0001942  83.3318 276.8037 13.20770979204246
ONEWEB-0373             
1 49299U 21090W   25338.94788696  .00000112  00000+0  24326-3 0  9996
2 49299  87.9182 313.1919 0001721  85.9662 274.1668 13.20774264205382
ONEWEB-0374             
1 49300U 21090X   25339.01837336 -.00000138  00000+0 -40660-3 0  9993
2 49300  87.8985 328.3814 0001948 104.2794 255.8552 13.14504383202054
ONEWEB-0375             
1 49301U 21090Y   25339.01102469  .00004083  00000+0  10004-1 0  9994
2 49301  87.9192 313.1604 0001618 105.2348 254.8964 13.20779598204894
ONEWEB-0376             
1 49302U 21090Z   25339.09728917  .00000064  00000+0  12661-3 0  9993
2 49302  87.9205 343.5722 0001949  86.8448 273.2908 13.19727161200852
ONEWEB-0377             
1 49303U 21090AA  25338.99695156 -.00000022  00000+0 -86428-4 0  9999
2 49303  87.9196 313.1626 0001582  82.9609 277.1704 13.20773443204887
ONEWEB-0378             
1 49304U 21090AB  25338.94329574  .00000081  00000+0  16674-3 0  9991
2 49304  87.9191 313.1879 0001784  89.0187 271.1150 13.20769853204144
